[{"OBJECT_NAME":"ONEWEB-0594","OBJECT_ID":"2022-166U","EPOCH":"2025-10-08T06:50:54.968352","MEAN_MOTION":13.21795274,"ECCENTRICITY":0.00017247,"INCLINATION":87.9176,"RA_OF_ASC_NODE":294.264,"ARG_OF_PERICENTER":92.1823,"MEAN_ANOMALY":267.9509,"EPHEMERIS_TYPE":0,"CLASSIFICATION_TYPE":"U","NORAD_CAT_ID":54660,"ELEMENT_SET_NO":999,"REV_AT_EPOCH":13828,"BSTAR":-0.0084618687,"MEAN_MOTION_DOT":-3.479e-5,"MEAN_MOTION_DDOT":0},{"OBJECT_NAME":"ONEWEB-0595","OBJECT_ID":"2022-166V","EPOCH":"2025-10-08T02:41:01.125312","MEAN_MOTION":13.21840053,"ECCENTRICITY":0.00020422,"INCLINATION":87.9169,"RA_OF_ASC_NODE":294.2736,"ARG_OF_PERICENTER":95.1471,"MEAN_ANOMALY":264.9896,"EPHEMERIS_TYPE":0,"CLASSIFICATION_TYPE":"U","NORAD_CAT_ID":54661,"ELEMENT_SET_NO":999,"REV_AT_EPOCH":13823,"BSTAR":0.0035851427,"MEAN_MOTION_DOT":1.494e-5,"MEAN_MOTION_DDOT":0},{"OBJECT_NAME":"ONEWEB-0596","OBJECT_ID":"2022-166W","EPOCH":"2025-10-08T00:13:27.141888","MEAN_MOTION":13.21825799,"ECCENTRICITY":0.00019618,"INCLINATION":87.9167,"RA_OF_ASC_NODE":294.3096,"ARG_OF_PERICENTER":90.7247,"MEAN_ANOMALY":269.4112,"EPHEMERIS_TYPE":0,"CLASSIFICATION_TYPE":"U","NORAD_CAT_ID":54662,"ELEMENT_SET_NO":999,"REV_AT_EPOCH":13822,"BSTAR":2.3675612e-5,"MEAN_MOTION_DOT":2.3e-7,"MEAN_MOTION_DDOT":0},{"OBJECT_NAME":"ONEWEB-0597","OBJECT_ID":"2022-166X","EPOCH":"2025-10-08T07:02:16.601280","MEAN_MOTION":13.21791833,"ECCENTRICITY":0.00019916,"INCLINATION":87.9169,"RA_OF_ASC_NODE":294.2566,"ARG_OF_PERICENTER":88.7574,"MEAN_ANOMALY":271.3788,"EPHEMERIS_TYPE":0,"CLASSIFICATION_TYPE":"U","NORAD_CAT_ID":54663,"ELEMENT_SET_NO":999,"REV_AT_EPOCH":13826,"BSTAR":-0.0094504192,"MEAN_MOTION_DOT":-3.886e-5,"MEAN_MOTION_DDOT":0},{"OBJECT_NAME":"ONEWEB-0600","OBJECT_ID":"2022-166Y","EPOCH":"2025-10-08T06:37:14.087136","MEAN_MOTION":13.21825129,"ECCENTRICITY":0.00017326,"INCLINATION":87.9164,"RA_OF_ASC_NODE":294.2517,"ARG_OF_PERICENTER":89.4198,"MEAN_ANOMALY":270.7134,"EPHEMERIS_TYPE":0,"CLASSIFICATION_TYPE":"U","NORAD_CAT_ID":54664,"ELEMENT_SET_NO":999,"REV_AT_EPOCH":13823,"BSTAR":6.8706251e-5,"MEAN_MOTION_DOT":4.1e-7,"MEAN_MOTION_DDOT":0},{"OBJECT_NAME":"ONEWEB-0601","OBJECT_ID":"2022-166Z","EPOCH":"2025-10-08T06:25:51.267072","MEAN_MOTION":13.21828641,"ECCENTRICITY":0.00017963,"INCLINATION":87.9171,"RA_OF_ASC_NODE":294.2709,"ARG_OF_PERICENTER":81.6598,"MEAN_ANOMALY":278.4739,"EPHEMERIS_TYPE":0,"CLASSIFICATION_TYPE":"U","NORAD_CAT_ID":54665,"ELEMENT_SET_NO":999,"REV_AT_EPOCH":13842,"BSTAR":0.00099817065,"MEAN_MOTION_DOT":4.25e-6,"MEAN_MOTION_DDOT":0},{"OBJECT_NAME":"ONEWEB-0602","OBJECT_ID":"2022-166AA","EPOCH":"2025-10-08T00:05:45.710592","MEAN_MOTION":13.22177715,"ECCENTRICITY":0.00015698,"INCLINATION":87.9174,"RA_OF_ASC_NODE":294.326,"ARG_OF_PERICENTER":98.7893,"MEAN_ANOMALY":261.3418,"EPHEMERIS_TYPE":0,"CLASSIFICATION_TYPE":"U","NORAD_CAT_ID":54666,"ELEMENT_SET_NO":999,"REV_AT_EPOCH":13823,"BSTAR":-0.034657442,"MEAN_MOTION_DOT":-0.00014353,"MEAN_MOTION_DDOT":0},{"OBJECT_NAME":"ONEWEB-0603","OBJECT_ID":"2022-166AB","EPOCH":"2025-10-07T07:54:42.283584","MEAN_MOTION":13.21813026,"ECCENTRICITY":0.00018584,"INCLINATION":87.9174,"RA_OF_ASC_NODE":294.396,"ARG_OF_PERICENTER":88.7075,"MEAN_ANOMALY":271.4271,"EPHEMERIS_TYPE":0,"CLASSIFICATION_TYPE":"U","NORAD_CAT_ID":54667,"ELEMENT_SET_NO":999,"REV_AT_EPOCH":13807,"BSTAR":-0.003350188,"MEAN_MOTION_DOT":-1.37e-5,"MEAN_MOTION_DDOT":0},{"OBJECT_NAME":"ONEWEB-0604","OBJECT_ID":"2022-166AC","EPOCH":"2025-10-08T07:13:42.256992","MEAN_MOTION":13.217608,"ECCENTRICITY":0.000177,"INCLINATION":87.9171,"RA_OF_ASC_NODE":294.2261,"ARG_OF_PERICENTER":83.8437,"MEAN_ANOMALY":276.2899,"EPHEMERIS_TYPE":0,"CLASSIFICATION_TYPE":"U","NORAD_CAT_ID":54668,"ELEMENT_SET_NO":999,"REV_AT_EPOCH":13816,"BSTAR":-0.016518569,"MEAN_MOTION_DOT":-6.797e-5,"MEAN_MOTION_DDOT":0},{"OBJECT_NAME":"ONEWEB-0605","OBJECT_ID":"2022-166AD","EPOCH":"2025-10-08T01:37:31.425312","MEAN_MOTION":13.21787039,"ECCENTRICITY":0.00021794,"INCLINATION":87.9171,"RA_OF_ASC_NODE":294.3022,"ARG_OF_PERICENTER":73.2746,"MEAN_ANOMALY":286.8627,"EPHEMERIS_TYPE":0,"CLASSIFICATION_TYPE":"U","NORAD_CAT_ID":54669,"ELEMENT_SET_NO":999,"REV_AT_EPOCH":13820,"BSTAR":-0.0097197618,"MEAN_MOTION_DOT":-3.997e-5,"MEAN_MOTION_DDOT":0},{"OBJECT_NAME":"ONEWEB-0606","OBJECT_ID":"2022-166AE","EPOCH":"2025-10-08T00:20:16.304640","MEAN_MOTION":13.2181749,"ECCENTRICITY":0.00020701,"INCLINATION":87.9166,"RA_OF_ASC_NODE":294.3236,"ARG_OF_PERICENTER":96.4111,"MEAN_ANOMALY":263.7259,"EPHEMERIS_TYPE":0,"CLASSIFICATION_TYPE":"U","NORAD_CAT_ID":54670,"ELEMENT_SET_NO":999,"REV_AT_EPOCH":13825,"BSTAR":-0.0026922494,"MEAN_MOTION_DOT":-1.099e-5,"MEAN_MOTION_DDOT":0},{"OBJECT_NAME":"ONEWEB-0607","OBJECT_ID":"2022-166AF","EPOCH":"2025-10-08T06:48:38.503872","MEAN_MOTION":13.21793542,"ECCENTRICITY":0.00017888,"INCLINATION":87.9165,"RA_OF_ASC_NODE":294.2328,"ARG_OF_PERICENTER":89.6086,"MEAN_ANOMALY":270.5253,"EPHEMERIS_TYPE":0,"CLASSIFICATION_TYPE":"U","NORAD_CAT_ID":54671,"ELEMENT_SET_NO":999,"REV_AT_EPOCH":13826,"BSTAR":-0.0086884443,"MEAN_MOTION_DOT":-3.572e-5,"MEAN_MOTION_DDOT":0},{"OBJECT_NAME":"ONEWEB-0608","OBJECT_ID":"2022-166AG","EPOCH":"2025-10-08T06:57:45.060768","MEAN_MOTION":13.21783306,"ECCENTRICITY":0.00019491,"INCLINATION":87.9164,"RA_OF_ASC_NODE":294.2157,"ARG_OF_PERICENTER":75.5486,"MEAN_ANOMALY":284.5864,"EPHEMERIS_TYPE":0,"CLASSIFICATION_TYPE":"U","NORAD_CAT_ID":54672,"ELEMENT_SET_NO":999,"REV_AT_EPOCH":13827,"BSTAR":-0.010611409,"MEAN_MOTION_DOT":-4.365e-5,"MEAN_MOTION_DDOT":0},{"OBJECT_NAME":"ONEWEB-0610","OBJECT_ID":"2022-166AH","EPOCH":"2025-10-08T06:30:27.847296","MEAN_MOTION":13.2172651,"ECCENTRICITY":0.00024728,"INCLINATION":87.9182,"RA_OF_ASC_NODE":294.2564,"ARG_OF_PERICENTER":74.6281,"MEAN_ANOMALY":285.5126,"EPHEMERIS_TYPE":0,"CLASSIFICATION_TYPE":"U","NORAD_CAT_ID":54673,"ELEMENT_SET_NO":999,"REV_AT_EPOCH":13817,"BSTAR":0.046896549,"MEAN_MOTION_DOT":0.00019394,"MEAN_MOTION_DDOT":0},{"OBJECT_NAME":"ONEWEB-0611","OBJECT_ID":"2022-166AJ","EPOCH":"2025-10-08T06:21:18.872064","MEAN_MOTION":13.21828558,"ECCENTRICITY":0.00018804,"INCLINATION":87.9167,"RA_OF_ASC_NODE":294.2542,"ARG_OF_PERICENTER":98.4308,"MEAN_ANOMALY":261.7039,"EPHEMERIS_TYPE":0,"CLASSIFICATION_TYPE":"U","NORAD_CAT_ID":54674,"ELEMENT_SET_NO":999,"REV_AT_EPOCH":13816,"BSTAR":0.0010290231,"MEAN_MOTION_DOT":4.38e-6,"MEAN_MOTION_DDOT":0},{"OBJECT_NAME":"ONEWEB-0612","OBJECT_ID":"2022-166AK","EPOCH":"2025-10-08T06:39:30.253536","MEAN_MOTION":13.21825595,"ECCENTRICITY":0.00018641,"INCLINATION":87.9171,"RA_OF_ASC_NODE":294.2298,"ARG_OF_PERICENTER":86.5392,"MEAN_ANOMALY":273.5955,"EPHEMERIS_TYPE":0,"CLASSIFICATION_TYPE":"U","NORAD_CAT_ID":54675,"ELEMENT_SET_NO":999,"REV_AT_EPOCH":13815,"BSTAR":-0.00010667754,"MEAN_MOTION_DOT":-3.1e-7,"MEAN_MOTION_DDOT":0}]
