ONEWEB-0594             
1 54660U 22166U   25281.28535843 -.00003479  00000+0 -84619-2 0  9998
2 54660  87.9176 294.2640 0001724  92.1823 267.9509 13.21795274138288
ONEWEB-0595             
1 54661U 22166V   25281.11181858  .00001494  00000+0  35851-2 0  9991
2 54661  87.9169 294.2736 0002042  95.1471 264.9896 13.21840053138230
ONEWEB-0596             
1 54662U 22166W   25281.00934192  .00000023  00000+0  23676-4 0  9998
2 54662  87.9167 294.3096 0001961  90.7247 269.4112 13.21825799138220
ONEWEB-0597             
1 54663U 22166X   25281.29324770 -.00003886  00000+0 -94504-2 0  9993
2 54663  87.9169 294.2566 0001991  88.7574 271.3788 13.21791833138263
ONEWEB-0600             
1 54664U 22166Y   25281.27585749  .00000041  00000+0  68706-4 0  9992
2 54664  87.9164 294.2517 0001732  89.4198 270.7134 13.21825129138239
ONEWEB-0601             
1 54665U 22166Z   25281.26795448  .00000425  00000+0  99817-3 0  9993
2 54665  87.9171 294.2709 0001796  81.6598 278.4739 13.21828641138428
ONEWEB-0602             
1 54666U 22166AA  25281.00400128 -.00014353  00000+0 -34657-1 0  9990
2 54666  87.9174 294.3260 0001569  98.7893 261.3418 13.22177715138234
ONEWEB-0603             
1 54667U 22166AB  25280.32965606 -.00001370  00000+0 -33502-2 0  9996
2 54667  87.9174 294.3960 0001858  88.7075 271.4271 13.21813026138076
ONEWEB-0604             
1 54668U 22166AC  25281.30118353 -.00006797  00000+0 -16519-1 0  9991
2 54668  87.9171 294.2261 0001770  83.8437 276.2899 13.21760800138168
ONEWEB-0605             
1 54669U 22166AD  25281.06772483 -.00003997  00000+0 -97198-2 0  9997
2 54669  87.9171 294.3022 0002179  73.2746 286.8627 13.21787039138209
ONEWEB-0606             
1 54670U 22166AE  25281.01407760 -.00001099  00000+0 -26922-2 0  9995
2 54670  87.9166 294.3236 0002070  96.4111 263.7259 13.21817490138250
ONEWEB-0607             
1 54671U 22166AF  25281.28377898 -.00003572  00000+0 -86884-2 0  9994
2 54671  87.9165 294.2328 0001788  89.6086 270.5253 13.21793542138263
ONEWEB-0608             
1 54672U 22166AG  25281.29010487 -.00004365  00000+0 -10611-1 0  9999
2 54672  87.9164 294.2157 0001949  75.5486 284.5864 13.21783306138271
ONEWEB-0610             
1 54673U 22166AH  25281.27115564  .00019394  00000+0  46897-1 0  9991
2 54673  87.9182 294.2564 0002472  74.6281 285.5126 13.21726510138174
ONEWEB-0611             
1 54674U 22166AJ  25281.26480176  .00000438  00000+0  10290-2 0  9993
2 54674  87.9167 294.2542 0001880  98.4308 261.7039 13.21828558138163
ONEWEB-0612             
1 54675U 22166AK  25281.27743349 -.00000031  00000+0 -10668-3 0  9990
2 54675  87.9171 294.2298 0001864  86.5392 273.5955 13.21825595138155
